start=new Date('2022-07-30T00:00:00.000Z').valueOf();
sats=[{"CENTER_NAME":"EARTH","RA_OF_ASC_NODE":"272.0285","EPHEMERIS_TYPE":"0","REF_FRAME":"TEME","TLE_LINE2":"2 48662  53.0539 272.0285 0001097  81.4713 278.6400 15.06409481 65073","ELEMENT_SET_NO":"999","DECAY_DATE":null,"RCS_SIZE":"LARGE","EPOCH":"2022-07-29T20:57:55.574496","OBJECT_NAME":"STARLINK-2726","COUNTRY_CODE":"US","PERIAPSIS":"546.425","FILE":"3524848","ECCENTRICITY":"0.00010970","OBJECT_TYPE":"PAYLOAD","NORAD_CAT_ID":"48662","SEMIMAJOR_AXIS":"6925.320","INCLINATION":"53.0539","CLASSIFICATION_TYPE":"U","MEAN_ANOMALY":"278.6400","TIME_SYSTEM":"UTC","MEAN_MOTION_DOT":"0.00000884","BSTAR":"0.00007822000000","REV_AT_EPOCH":"6507","SITE":"AFETR","MEAN_ELEMENT_THEORY":"SGP4","LAUNCH_DATE":"2021-05-26","GP_ID":"209132691","MEAN_MOTION":"15.06409481","MEAN_MOTION_DDOT":"0.0000000000000","OBJECT_ID":"2021-044AA","TLE_LINE1":"1 48662U 21044AA  22210.87355989  .00000884  00000-0  78220-4 0  9991","PERIOD":"95.592","ARG_OF_PERICENTER":"81.4713","APOAPSIS":"547.944"},{"CENTER_NAME":"EARTH","RA_OF_ASC_NODE":"272.0407","EPHEMERIS_TYPE":"0","REF_FRAME":"TEME","TLE_LINE2":"2 48663  53.0529 272.0407 0001251  76.7875 283.3254 15.06403740 65079","ELEMENT_SET_NO":"999","DECAY_DATE":null,"RCS_SIZE":"LARGE","EPOCH":"2022-07-29T20:52:37.151616","OBJECT_NAME":"STARLINK-2667","COUNTRY_CODE":"US","FILE":"3524848","PERIAPSIS":"546.336","ECCENTRICITY":"0.00012510","SEMIMAJOR_AXIS":"6925.337","OBJECT_TYPE":"PAYLOAD","NORAD_CAT_ID":"48663","CLASSIFICATION_TYPE":"U","INCLINATION":"53.0529","TIME_SYSTEM":"UTC","MEAN_ANOMALY":"283.3254","MEAN_MOTION_DOT":"0.00000364","BSTAR":"0.00004330900000","REV_AT_EPOCH":"6507","MEAN_ELEMENT_THEORY":"SGP4","SITE":"AFETR","LAUNCH_DATE":"2021-05-26","GP_ID":"209133426","MEAN_MOTION":"15.06403740","MEAN_MOTION_DDOT":"0.0000000000000","OBJECT_ID":"2021-044AB","TLE_LINE1":"1 48663U 21044AB  22210.86987444  .00000364  00000-0  43309-4 0  9991","PERIOD":"95.592","ARG_OF_PERICENTER":"76.7875","APOAPSIS":"548.068"},{"OBJECT_NAME":"STARLINK-2709","RCS_SIZE":"LARGE","EPOCH":"2022-07-29T20:47:19.101120","DECAY_DATE":null,"ELEMENT_SET_NO":"999","TLE_LINE2":"2 48664  53.0543 272.0588 0001542  65.4834 294.6316 15.06406044 65073","REF_FRAME":"TEME","RA_OF_ASC_NODE":"272.0588","EPHEMERIS_TYPE":"0","CENTER_NAME":"EARTH","PERIOD":"95.592","TLE_LINE1":"1 48664U 21044AC  22210.86619330 -.00000304  00000-0 -15079-5 0  9998","ARG_OF_PERICENTER":"65.4834","APOAPSIS":"548.263","OBJECT_ID":"2021-044AC","MEAN_MOTION":"15.06406044","MEAN_MOTION_DDOT":"0.0000000000000","GP_ID":"209132192","LAUNCH_DATE":"2021-05-26","REV_AT_EPOCH":"6507","SITE":"AFETR","MEAN_ELEMENT_THEORY":"SGP4","MEAN_ANOMALY":"294.6316","TIME_SYSTEM":"UTC","MEAN_MOTION_DOT":"-0.00000304","BSTAR":"-0.00000150790000","OBJECT_TYPE":"PAYLOAD","NORAD_CAT_ID":"48664","SEMIMAJOR_AXIS":"6925.330","INCLINATION":"53.0543","CLASSIFICATION_TYPE":"U","COUNTRY_CODE":"US","PERIAPSIS":"546.127","FILE":"3524848","ECCENTRICITY":"0.00015420"},{"GP_ID":"209132442","LAUNCH_DATE":"2021-05-26","MEAN_MOTION_DDOT":"0.0000000000000","MEAN_MOTION":"15.06404261","OBJECT_ID":"2021-044AD","ARG_OF_PERICENTER":"64.9823","APOAPSIS":"548.265","TLE_LINE1":"1 48665U 21044AD  22210.87999087  .00000170  00000-0  30309-4 0  9991","PERIOD":"95.592","ECCENTRICITY":"0.00015370","FILE":"3524848","PERIAPSIS":"546.136","COUNTRY_CODE":"US","CLASSIFICATION_TYPE":"U","INCLINATION":"53.0527","OBJECT_TYPE":"PAYLOAD","NORAD_CAT_ID":"48665","SEMIMAJOR_AXIS":"6925.335","MEAN_MOTION_DOT":"0.00000170","BSTAR":"0.00003030900000","TIME_SYSTEM":"UTC","MEAN_ANOMALY":"295.1326","MEAN_ELEMENT_THEORY":"SGP4","SITE":"AFETR","REV_AT_EPOCH":"6507","ELEMENT_SET_NO":"999","DECAY_DATE":null,"EPOCH":"2022-07-29T21:07:11.211168","RCS_SIZE":"LARGE","OBJECT_NAME":"STARLINK-2653","CENTER_NAME":"EARTH","EPHEMERIS_TYPE":"0","RA_OF_ASC_NODE":"271.9812","REF_FRAME":"TEME","TLE_LINE2":"2 48665  53.0527 271.9812 0001537  64.9823 295.1326 15.06404261 65076"},{"OBJECT_NAME":"STARLINK-2666","RCS_SIZE":"LARGE","EPOCH":"2022-07-29T16:37:56.113248","DECAY_DATE":null,"ELEMENT_SET_NO":"999","TLE_LINE2":"2 48666  53.0547 273.3075 0001285  68.9714 291.1412 15.06407353 65032","REF_FRAME":"TEME","RA_OF_ASC_NODE":"273.3075","EPHEMERIS_TYPE":"0","CENTER_NAME":"EARTH","PERIOD":"95.592","TLE_LINE1":"1 48666U 21044AE  22210.69301057  .00000156  00000-0  29345-4 0  9998","APOAPSIS":"548.081","ARG_OF_PERICENTER":"68.9714","OBJECT_ID":"2021-044AE","MEAN_MOTION":"15.06407353","MEAN_MOTION_DDOT":"0.0000000000000","LAUNCH_DATE":"2021-05-26","GP_ID":"209133191","REV_AT_EPOCH":"6503","MEAN_ELEMENT_THEORY":"SGP4","SITE":"AFETR","TIME_SYSTEM":"UTC","MEAN_ANOMALY":"291.1412","BSTAR":"0.00002934500000","MEAN_MOTION_DOT":"0.00000156","SEMIMAJOR_AXIS":"6925.326","OBJECT_TYPE":"PAYLOAD","NORAD_CAT_ID":"48666","CLASSIFICATION_TYPE":"U","INCLINATION":"53.0547","COUNTRY_CODE":"US","PERIAPSIS":"546.301","FILE":"3524848","ECCENTRICITY":"0.00012850"},{"OBJECT_ID":"2021-044AF","PERIOD":"95.592","TLE_LINE1":"1 48667U 21044AF  22210.86251213  .00000275  00000-0  37374-4 0  9999","APOAPSIS":"548.203","ARG_OF_PERICENTER":"67.4740","GP_ID":"209132927","LAUNCH_DATE":"2021-05-26","MEAN_MOTION":"15.06405518","MEAN_MOTION_DDOT":"0.0000000000000","TIME_SYSTEM":"UTC","MEAN_ANOMALY":"292.6403","MEAN_MOTION_DOT":"0.00000275","BSTAR":"0.00003737400000","REV_AT_EPOCH":"6507","MEAN_ELEMENT_THEORY":"SGP4","SITE":"AFETR","COUNTRY_CODE":"US","ECCENTRICITY":"0.00014530","FILE":"3524848","PERIAPSIS":"546.190","SEMIMAJOR_AXIS":"6925.332","OBJECT_TYPE":"PAYLOAD","NORAD_CAT_ID":"48667","CLASSIFICATION_TYPE":"U","INCLINATION":"53.0532","RCS_SIZE":"LARGE","EPOCH":"2022-07-29T20:42:01.048032","OBJECT_NAME":"STARLINK-2735","ELEMENT_SET_NO":"999","DECAY_DATE":null,"REF_FRAME":"TEME","TLE_LINE2":"2 48667  53.0532 272.0761 0001453  67.4740 292.6403 15.06405518 65076","CENTER_NAME":"EARTH","RA_OF_ASC_NODE":"272.0761","EPHEMERIS_TYPE":"0"},{"OBJECT_NAME":"STARLINK-2738","EPOCH":"2022-07-29T14:14:32.863488","RCS_SIZE":"LARGE","DECAY_DATE":null,"ELEMENT_SET_NO":"999","TLE_LINE2":"2 48668  53.0541 273.2754 0001064  82.7413 277.3697 15.06397464 65038","REF_FRAME":"TEME","EPHEMERIS_TYPE":"0","RA_OF_ASC_NODE":"273.2754","CENTER_NAME":"EARTH","APOAPSIS":"547.958","ARG_OF_PERICENTER":"82.7413","PERIOD":"95.592","TLE_LINE1":"1 48668U 21044AG  22210.59343592 -.00000204  00000-0  51932-5 0  9992","OBJECT_ID":"2021-044AG","MEAN_MOTION_DDOT":"0.0000000000000","MEAN_MOTION":"15.06397464","GP_ID":"209131693","LAUNCH_DATE":"2021-05-26","MEAN_ELEMENT_THEORY":"SGP4","SITE":"AFETR","REV_AT_EPOCH":"6503","MEAN_MOTION_DOT":"-0.00000204","BSTAR":"0.00000519320000","TIME_SYSTEM":"UTC","MEAN_ANOMALY":"277.3697","CLASSIFICATION_TYPE":"U","INCLINATION":"53.0541","OBJECT_TYPE":"PAYLOAD","SEMIMAJOR_AXIS":"6925.356","NORAD_CAT_ID":"48668","FILE":"3524848","PERIAPSIS":"546.484","ECCENTRICITY":"0.00010640","COUNTRY_CODE":"US"},{"LAUNCH_DATE":"2021-05-26","GP_ID":"209131943","MEAN_MOTION_DDOT":"0.0000000000000","MEAN_MOTION":"15.06388661","OBJECT_ID":"2021-044AH","APOAPSIS":"548.317","ARG_OF_PERICENTER":"92.0809","PERIOD":"95.593","TLE_LINE1":"1 48669U 21044AH  22210.52340779 -.00000187  00000-0  63440-5 0  9997","FILE":"3524848","ECCENTRICITY":"0.00015430","PERIAPSIS":"546.180","COUNTRY_CODE":"US","CLASSIFICATION_TYPE":"U","INCLINATION":"53.0547","OBJECT_TYPE":"PAYLOAD","NORAD_CAT_ID":"48669","SEMIMAJOR_AXIS":"6925.383","MEAN_MOTION_DOT":"-0.00000187","BSTAR":"0.00000634400000","TIME_SYSTEM":"UTC","MEAN_ANOMALY":"268.0356","MEAN_ELEMENT_THEORY":"SGP4","SITE":"AFETR","REV_AT_EPOCH":"6501","ELEMENT_SET_NO":"999","DECAY_DATE":null,"EPOCH":"2022-07-29T12:33:42.433056","RCS_SIZE":"LARGE","OBJECT_NAME":"STARLINK-2707","CENTER_NAME":"EARTH","EPHEMERIS_TYPE":"0","RA_OF_ASC_NODE":"273.5747","REF_FRAME":"TEME","TLE_LINE2":"2 48669  53.0547 273.5747 0001543  92.0809 268.0356 15.06388661 65011"},{"REF_FRAME":"TEME","TLE_LINE2":"2 48670  53.0540 273.8879 0001292  88.4590 271.6547 15.06406237 65003","CENTER_NAME":"EARTH","RA_OF_ASC_NODE":"273.8879","EPHEMERIS_TYPE":"0","RCS_SIZE":"LARGE","EPOCH":"2022-07-29T10:52:51.001248","OBJECT_NAME":"STARLINK-2763","ELEMENT_SET_NO":"999","DECAY_DATE":null,"MEAN_ANOMALY":"271.6547","TIME_SYSTEM":"UTC","BSTAR":"0.00003471200000","MEAN_MOTION_DOT":"0.00000236","REV_AT_EPOCH":"6500","SITE":"AFETR","MEAN_ELEMENT_THEORY":"SGP4","COUNTRY_CODE":"US","ECCENTRICITY":"0.00012920","FILE":"3524608","PERIAPSIS":"546.300","OBJECT_TYPE":"PAYLOAD","SEMIMAJOR_AXIS":"6925.329","NORAD_CAT_ID":"48670","INCLINATION":"53.0540","CLASSIFICATION_TYPE":"U","OBJECT_ID":"2021-044AJ","PERIOD":"95.592","TLE_LINE1":"1 48670U 21044AJ  22210.45336807  .00000236  00000-0  34712-4 0  9991","APOAPSIS":"548.089","ARG_OF_PERICENTER":"88.4590","GP_ID":"209102989","LAUNCH_DATE":"2021-05-26","MEAN_MOTION":"15.06406237","MEAN_MOTION_DDOT":"0.0000000000000"},{"RCS_SIZE":"LARGE","EPOCH":"2022-07-29T13:58:37.115328","OBJECT_NAME":"STARLINK-2745","ELEMENT_SET_NO":"999","DECAY_DATE":null,"REF_FRAME":"TEME","TLE_LINE2":"2 48671  53.0546 273.3285 0001404  78.8746 281.2401 15.06406972 65021","CENTER_NAME":"EARTH","RA_OF_ASC_NODE":"273.3285","EPHEMERIS_TYPE":"0","OBJECT_ID":"2021-044AK","PERIOD":"95.592","TLE_LINE1":"1 48671U 21044AK  22210.58237402 -.00000221  00000-0  40899-5 0  9996","ARG_OF_PERICENTER":"78.8746","APOAPSIS":"548.165","GP_ID":"209133427","LAUNCH_DATE":"2021-05-26","MEAN_MOTION":"15.06406972","MEAN_MOTION_DDOT":"0.0000000000000","TIME_SYSTEM":"UTC","MEAN_ANOMALY":"281.2401","MEAN_MOTION_DOT":"-0.00000221","BSTAR":"0.00000408990000","REV_AT_EPOCH":"6502","MEAN_ELEMENT_THEORY":"SGP4","SITE":"AFETR","COUNTRY_CODE":"US","PERIAPSIS":"546.220","FILE":"3524848","ECCENTRICITY":"0.00014040","OBJECT_TYPE":"PAYLOAD","SEMIMAJOR_AXIS":"6925.327","NORAD_CAT_ID":"48671","CLASSIFICATION_TYPE":"U","INCLINATION":"53.0546"}];
